ONEWEB-0201             
1 48241U 21031AH  23362.35529469  .00000129  00000+0  31300-3 0  9996
2 48241  87.8986 109.2325 0001718 101.3859 258.7464 13.14507921129903
ONEWEB-0207             
1 48242U 21031AJ  23362.33466818 -.00000090  00000+0 -27651-3 0  9996
2 48242  87.8974 109.2054 0001525  93.7391 266.3913 13.14501354129819
ONEWEB-0208             
1 48243U 21031AK  23362.31644289  .00000058  00000+0  12226-3 0  9999
2 48243  87.8974 109.2252 0001802 101.0210 259.1122 13.14503120129827
ONEWEB-0200             
1 48244U 21031AL  23362.35607948  .00000142  00000+0  34949-3 0  9995
2 48244  87.8982 109.2152 0001929 105.4510 254.6833 13.14505497129757
ONEWEB-0217             
1 48245U 21031AM  23362.37194488  .00000288  00000+0  74242-3 0  9999
2 48245  87.8983 109.1969 0002075 108.1450 251.9906 13.14502304129700
ONEWEB-0211             
1 48767U 21045A   23362.58749562  .00000079  00000+0  17460-3 0  9992
2 48767  87.8997  78.6601 0001771 105.5994 254.5332 13.15553182125870
ONEWEB-0223             
1 48768U 21045B   23362.60970809  .00000459  00000+0  11838-2 0  9990
2 48768  87.8997  78.6585 0002152 125.7206 234.4125 13.15549312125862
ONEWEB-0230             
1 48769U 21045C   23362.58117248  .00000110  00000+0  25870-3 0  9994
2 48769  87.8998  78.7364 0001589 110.9998 249.1303 13.15553616126120
ONEWEB-0237             
1 48770U 21045D   23362.26584130  .00000047  00000+0  91782-4 0  9994
2 48770  87.9006  78.7200 0001965 119.1448 240.9880 13.15549735125801
ONEWEB-0235             
1 48771U 21045E   23362.24048805  .00000659  00000+0  17151-2 0  9992
2 48771  87.9000  78.7488 0002182 132.2227 227.9088 13.15545441126915
ONEWEB-0242             
1 48772U 21045F   23362.61443700  .00000014  00000+0  25915-5 0  9992
2 48772  87.8998  78.6640 0001719 113.2054 246.9258 13.15548888125885
ONEWEB-0241             
1 48773U 21045G   23362.60176172  .00000105  00000+0  24424-3 0  9991
2 48773  87.9006  78.6976 0002229 110.8088 249.3281 13.15549534125798
ONEWEB-0243             
1 48774U 21045H   23362.25315982 -.00000045  00000+0 -15249-3 0  9997
2 48774  87.9006  78.7245 0001780 120.0681 240.0626 13.15547199125776
ONEWEB-0222             
1 48775U 21045J   23362.24367959 -.00000045  00000+0 -15356-3 0  9997
2 48775  87.8996  78.7520 0002023 113.4094 246.7249 13.15548192125818
ONEWEB-0244             
1 48776U 21045K   23362.26267796  .00000007  00000+0 -15794-4 0  9992
2 48776  87.8995  78.7302 0001569 112.8561 247.2735 13.15554186126381
ONEWEB-0247             
1 48777U 21045L   23362.25950082  .00000007  00000+0 -15603-4 0  9998
2 48777  87.9008  78.7569 0002204 138.4549 221.6749 13.15549742125821
ONEWEB-0245             
1 48778U 21045M   23362.25475931 -.00000024  00000+0 -99119-4 0  9998
2 48778  87.8994  78.7597 0002057 105.8109 254.3248 13.15548877125793
ONEWEB-0229             
1 48779U 21045N   23362.24999291 -.00000315  00000+0 -87019-3 0  9996
2 48779  87.8997  78.7517 0001757 114.0109 246.1205 13.15548542125822
ONEWEB-0228             
1 48780U 21045P   23362.26504033  .00002044  00000+0  53922-2 0  9990
2 48780  87.8992  78.7294 0001929 108.0020 252.1321 13.15563965125740
ONEWEB-0232             
1 48781U 21045Q   23362.25790696 -.00000056  00000+0 -18345-3 0  9996
2 48781  87.8954  78.7592 0001633 113.6023 246.5279 13.15549611126064
ONEWEB-0231             
1 48782U 21045R   23362.31179026  .00000094  00000+0  21595-3 0  9993
2 48782  87.9007  78.7520 0001844 114.4006 245.7317 13.15547699125764
ONEWEB-0234             
1 48783U 21045S   23362.25554135 -.00000557  00000+0 -15130-2 0  9998
2 48783  87.8997  78.7354 0002717  75.8315 284.3117 13.15549888125893
ONEWEB-0238             
1 48784U 21045T   23362.28566414  .00000273  00000+0  69223-3 0  9991
2 48784  87.8996  78.7486 0001777 100.0672 260.0659 13.15551630125790
ONEWEB-0240             
1 48785U 21045U   23362.59939409  .00000086  00000+0  19447-3 0  9999
2 48785  87.8997  78.6541 0002235 112.2717 247.8651 13.15549318125861
ONEWEB-0246             
1 48786U 21045V   23362.28961881  .00000214  00000+0  53500-3 0  9996
2 48786  87.9000  78.7180 0001927 120.0919 240.0402 13.15548547125699
ONEWEB-0210             
1 48787U 21045W   23362.26425680  .00000073  00000+0  16007-3 0  9991
2 48787  87.8996  78.7303 0001541 130.5547 229.5718 13.15548060125732
ONEWEB-0214             
1 48788U 21045X   23362.27375502  .00000055  00000+0  11207-3 0  9997
2 48788  87.8994  78.7169 0001445 129.5301 230.5957 13.15550681125706
ONEWEB-0221             
1 48789U 21045Y   23362.58433872  .00000063  00000+0  13431-3 0  9997
2 48789  87.8998  78.6684 0001921 111.0558 249.0778 13.15548559125832
ONEWEB-0213             
1 48790U 21045Z   23362.26901411  .00000080  00000+0  17749-3 0  9998
2 48790  87.8997  78.7478 0001931 117.3228 242.8099 13.15547405125857
ONEWEB-0212             
1 48791U 21045AA  23362.24603114 -.00000079  00000+0 -24395-3 0  9991
2 48791  87.9001  78.7321 0001803 102.4518 257.6814 13.15547119125847
ONEWEB-0227             
1 48792U 21045AB  23362.24524896 -.00000030  00000+0 -11344-3 0  9998
2 48792  87.8999  78.7492 0001866 107.6049 252.5285 13.15547844125792
ONEWEB-0226             
1 48793U 21045AC  23362.23890939  .00000008  00000+0 -11800-4 0  9994
2 48793  87.8999  78.7584 0001767 124.9294 235.2003 13.15548233125765
ONEWEB-0224             
1 48794U 21045AD  23362.58275858  .00000065  00000+0  13979-3 0  9990
2 48794  87.9008  78.7028 0002543 109.9963 250.1442 13.15549254125734
ONEWEB-0233             
1 48795U 21045AE  23362.27455916  .00000089  00000+0  20343-3 0  9991
2 48795  87.8997  78.7785 0001641 112.7660 247.3644 13.15553604125719
ONEWEB-0190             
1 48796U 21045AF  23362.27059741  .00000099  00000+0  22958-3 0  9993
2 48796  87.8993  78.7436 0002422 131.7872 228.3465 13.15549263125786
ONEWEB-0236             
1 48797U 21045AG  23362.28802412  .00000244  00000+0  61384-3 0  9994
2 48797  87.9007  78.7248 0001901 108.0858 252.0479 13.15551182125677
ONEWEB-0248             
1 48798U 21045AH  23362.60493846  .00000087  00000+0  19809-3 0  9998
2 48798  87.8997  78.6677 0002544 114.0972 246.0424 13.15548229125871
ONEWEB-0225             
1 48799U 21045AJ  23362.24682751 -.00000018  00000+0 -82530-4 0  9992
2 48799  87.8992  78.7454 0002133 118.1271 242.0075 13.15548861125838
ONEWEB-0215             
1 48800U 21045AK  23362.59701007  .00000089  00000+0  20273-3 0  9990
2 48800  87.8997  78.6569 0002533 121.6810 238.4567 13.15547016125751
ONEWEB-0216             
1 48801U 21045AL  23362.60651943  .00000061  00000+0  12790-3 0  9991
2 48801  87.8998  78.6937 0001541 115.2787 244.8503 13.15549030125762
ONEWEB-0239             
1 48802U 21045AM  23362.61127441  .00000045  00000+0  84405-4 0  9999
2 48802  87.9007  78.6533 0002601 118.4250 241.7143 13.15548263125803
ONEWEB-0249             
1 48967U 21060A   23362.57615844  .00000151  00000+0  36062-3 0  9995
2 48967  87.9064  48.2182 0001788  98.6141 261.5192 13.16593638120978
ONEWEB-0250             
1 48968U 21060B   23362.20039757  .00000138  00000+0  32853-3 0  9998
2 48968  87.9064  48.2775 0002054 104.8122 255.3236 13.16595307120901
ONEWEB-0252             
1 48970U 21060D   23362.60782778  .00000023  00000+0  26921-4 0  9996
2 48970  87.9067  48.2046 0001659 101.0841 259.0476 13.16594319121028
ONEWEB-0253             
1 48971U 21060E   23362.59726897  .00000090  00000+0  20081-3 0  9999
2 48971  87.9057  48.2248 0001888 108.7156 251.4180 13.16593287120951
ONEWEB-0254             
1 48972U 21060F   23362.60571494  .00000044  00000+0  82027-4 0  9991
2 48972  87.9067  48.1953 0001943 108.3131 251.8212 13.16596450120951
ONEWEB-0255             
1 48973U 21060G   23362.56771891  .00000094  00000+0  21160-3 0  9995
2 48973  87.9063  48.2384 0001868  97.8175 262.3168 13.16593048121029
ONEWEB-0256             
1 48974U 21060H   23362.59304073  .00001780  00000+0  46207-2 0  9994
2 48974  87.9088  48.2363 0001589  99.3408 260.7902 13.16602340120999
ONEWEB-0257             
1 48975U 21060J   23362.55082904  .00000778  00000+0  20011-2 0  9998
2 48975  87.9062  48.2152 0001809 105.2036 254.9295 13.16591242120940
ONEWEB-0258             
1 48976U 21060K   23362.55293281 -.00000243  00000+0 -66809-3 0  9996
2 48976  87.9064  48.2444 0001841 100.3272 259.8066 13.16593983120956
ONEWEB-0259             
1 48977U 21060L   23362.54660427 -.00000022  00000+0 -90149-4 0  9996
2 48977  87.9065  48.2306 0002127 100.3772 259.7599 13.16591685120988
ONEWEB-0260             
1 48978U 21060M   23362.54027299 -.00000027  00000+0 -10449-3 0  9990
2 48978  87.9063  48.2615 0001164 115.1254 244.9998 13.16593818120966
ONEWEB-0261             
1 48979U 21060N   23362.58249160  .00000038  00000+0  64879-4 0  9995
2 48979  87.9058  48.2429 0001989 117.4357 242.6977 13.16594641121023
ONEWEB-0262             
1 48980U 21060P   23362.56349468  .00000060  00000+0  12209-3 0  9991
2 48980  87.9063  48.2134 0002290 105.7026 254.4358 13.16594751120983
ONEWEB-0263             
1 48981U 21060Q   23362.59515697  .00000140  00000+0  33179-3 0  9992
2 48981  87.9060  48.2195 0002067 111.1050 249.0302 13.16595258120957
ONEWEB-0264             
1 48982U 21060R   23362.55611610  .00000010  00000+0 -63291-5 0  9998
2 48982  87.9069  48.2385 0001783  99.5545 260.5788 13.16593808120955
ONEWEB-0266             
1 48984U 21060T   23362.57828643  .00000119  00000+0  27751-3 0  9996
2 48984  87.9066  48.2165 0001909  96.5843 263.5505 13.16597595120944
ONEWEB-0267             
1 48985U 21060U   23362.58883051  .00000122  00000+0  28623-3 0  9995
2 48985  87.9065  48.2150 0001724 113.5139 246.6173 13.16594199120952
ONEWEB-0268             
1 48986U 21060V   23362.55717863  .00000021  00000+0  20136-4 0  9990
2 48986  87.9067  48.2265 0001644 100.4316 259.7000 13.16591597121218
